COSMO-SKYMED 2          
1 32376U 07059A   26192.93739826  .00000199  00000+0  31534-4 0  9997
2 32376  97.8892  16.1771 0001436  93.3210 266.8167 14.82148982  5672
COSMO-SKYMED 3          
1 33412U 08054A   26192.90938030  .00001817  00000+0  12514-3 0  9994
2 33412  97.8260  51.8901 0015554 176.8132 183.3197 15.07100844960668
COSMO-SKYMED 4          
1 37216U 10060A   26192.95005723  .00000966  00000+0  12791-3 0  9990
2 37216  97.8895  16.1920 0001539  84.8642 275.2746 14.82150193848238
CYGFM04                 
1 41885U 16078B   26192.94436384  .00021646  00000+0  23090-3 0  9994
2 41885  34.9325  62.9216 0004611  47.5229 312.5886 15.62935372532872
CYGFM02                 
1 41886U 16078C   26192.95948331  .00026306  00000+0  24625-3 0  9999
2 41886  34.9407  56.6012 0005333  51.8258 308.2949 15.66185448533058
CYGFM01                 
1 41887U 16078D   26192.90306698  .00016889  00000+0  21423-3 0  9997
2 41887  34.9395  97.6416 0006578 357.8092   2.2603 15.58462573532566
CYGFM03                 
1 41891U 16078H   26192.93932708  .00019752  00000+0  22362-3 0  9997
2 41891  34.9403  66.5565 0005068  31.7377 328.3653 15.61420390532841
CSG-1                   
1 44873U 19092A   26193.03026850  .00000223  00000+0  34622-4 0  9999
2 44873  97.8894  16.2736 0001474  90.0648 270.0734 14.82155271355159
CSG-2                   
1 51444U 22008A   26192.92896076  .00000516  00000+0  71376-4 0  9996
2 51444  97.8893  16.1686 0001520  85.8798 274.2589 14.82149240240250
CSG-3                   
1 67304U 26001A   26192.97541170  .00000158  00000+0  26380-4 0  9999
2 67304  97.8893  16.2188 0001500  93.2995 266.8389 14.82150701 28130
